{"type": "FeatureCollection", "features": [ {"type": "Feature", "properties": {"norad_id": 66877, "name": "ZQ-3 R/B", "group": "last-30-days", "lat": -36.28695362061408, "lon": 53.1096022237582, "alt_km": 870.1697781926741, "timestamp": "2025-12-06T09:34:15.700886+00:00", "meta": {"OBJECT_NAME": "ZQ-3 R/B", "OBJECT_ID": "2025-282A", "EPOCH": "2025-12-05T18:49:58.160352", "MEAN_MOTION": 14.41924591, "ECCENTRICITY": 0.08522909, "INCLINATION": 56.9552, "RA_OF_ASC_NODE": 83.9549, "ARG_OF_PERICENTER": 208.0729, "MEAN_ANOMALY": 147.1737, "EPHEMERIS_TYPE": 0, "CLASSIFICATION_TYPE": "U", "NORAD_CAT_ID": 66877, "ELEMENT_SET_NO": 999, "REV_AT_EPOCH": 38, "BSTAR": 0.00027739379, "MEAN_MOTION_DOT": 0.01255425, "MEAN_MOTION_DDOT": 7.201302e-06}, "tle": {"line1": "1 66877U 25282A   25339.78470093  .01255425  72013-5  27739-3 0  9996", "line2": "2 66877  56.9552  83.9549 0852290 208.0729 147.1737 14.41924591   381"}}, "geometry": {"type": "Point", "coordinates": [53.1096022237582, -36.28695362061408]}}, {"type": "Feature", "properties": {"norad_id": 66906, "name": "1998-067XS", "group": "last-30-days", "lat": -49.17782535548875, "lon": 107.33474697491552, "alt_km": 421.93232771383464, "timestamp": "2025-12-06T09:34:15.700900+00:00", "meta": {"OBJECT_NAME": "1998-067XS", "OBJECT_ID": "1998-067XS", "EPOCH": "2025-12-05T23:03:45.207360", "MEAN_MOTION": 15.50072979, "ECCENTRICITY": 0.00042511, "INCLINATION": 51.6296, "RA_OF_ASC_NODE": 176.0242, "ARG_OF_PERICENTER": 173.878, "MEAN_ANOMALY": 186.2262, "EPHEMERIS_TYPE": 0, "CLASSIFICATION_TYPE": "U", "NORAD_CAT_ID": 66906, "ELEMENT_SET_NO": 999, "REV_AT_EPOCH": 56, "BSTAR": 0.00063070606, "MEAN_MOTION_DOT": 0.00035803, "MEAN_MOTION_DDOT": 0}, "tle": {"line1": "1 66906U 98067XS  25339.96093990  .00035803  00000+0  63071-3 0  9992", "line2": "2 66906  51.6296 176.0242 0004251 173.8780 186.2262 15.50072979   569"}}, "geometry": {"type": "Point", "coordinates": [107.33474697491552, -49.17782535548875]}}, {"type": "Feature", "properties": {"norad_id": 66907, "name": "1998-067XT", "group": "last-30-days", "lat": -48.50405358238345, "lon": 110.25207946881272, "alt_km": 420.3584924839897, "timestamp": "2025-12-06T09:34:15.700910+00:00", "meta": {"OBJECT_NAME": "1998-067XT", "OBJECT_ID": "1998-067XT", "EPOCH": "2025-12-05T23:03:20.722464", "MEAN_MOTION": 15.50347782, "ECCENTRICITY": 0.00053008, "INCLINATION": 51.6292, "RA_OF_ASC_NODE": 176.0227, "ARG_OF_PERICENTER": 190.4344, "MEAN_ANOMALY": 169.6536, "EPHEMERIS_TYPE": 0, "CLASSIFICATION_TYPE": "U", "NORAD_CAT_ID": 66907, "ELEMENT_SET_NO": 999, "REV_AT_EPOCH": 56, "BSTAR": 0.0012672984, "MEAN_MOTION_DOT": 0.00073478, "MEAN_MOTION_DDOT": 0}, "tle": {"line1": "1 66907U 98067XT  25339.96065651  .00073478  00000+0  12673-2 0  9997", "line2": "2 66907  51.6292 176.0227 0005300 190.4344 169.6536 15.50347782   562"}}, "geometry": {"type": "Point", "coordinates": [110.25207946881272, -48.50405358238345]}}, {"type": "Feature", "properties": {"norad_id": 66908, "name": "1998-067XU", "group": "last-30-days", "lat": -48.27276278090788, "lon": 111.16988002496689, "alt_km": 420.24184426520424, "timestamp": "2025-12-06T09:34:15.700920+00:00", "meta": {"OBJECT_NAME": "1998-067XU", "OBJECT_ID": "1998-067XU", "EPOCH": "2025-12-05T19:57:34.192800", "MEAN_MOTION": 15.50396969, "ECCENTRICITY": 0.00055014, "INCLINATION": 51.6293, "RA_OF_ASC_NODE": 176.6606, "ARG_OF_PERICENTER": 189.4438, "MEAN_ANOMALY": 170.6448, "EPHEMERIS_TYPE": 0, "CLASSIFICATION_TYPE": "U", "NORAD_CAT_ID": 66908, "ELEMENT_SET_NO": 999, "REV_AT_EPOCH": 54, "BSTAR": 0.0012460713, "MEAN_MOTION_DOT": 0.00072359, "MEAN_MOTION_DDOT": 0}, "tle": {"line1": "1 66908U 98067XU  25339.83164575  .00072359  00000+0  12461-2 0  9991", "line2": "2 66908  51.6293 176.6606 0005501 189.4438 170.6448 15.50396969   549"}}, "geometry": {"type": "Point", "coordinates": [111.16988002496689, -48.27276278090788]}}, {"type": "Feature", "properties": {"norad_id": 66909, "name": "1998-067XV", "group": "last-30-days", "lat": -48.230274245557666, "lon": 111.33444832684268, "alt_km": 420.11085621450366, "timestamp": "2025-12-06T09:34:15.700935+00:00", "meta": {"OBJECT_NAME": "1998-067XV", "OBJECT_ID": "1998-067XV", "EPOCH": "2025-12-05T18:24:43.911360", "MEAN_MOTION": 15.50399103, "ECCENTRICITY": 0.00053649, "INCLINATION": 51.6292, "RA_OF_ASC_NODE": 176.9805, "ARG_OF_PERICENTER": 189.9534, "MEAN_ANOMALY": 170.135, "EPHEMERIS_TYPE": 0, "CLASSIFICATION_TYPE": "U", "NORAD_CAT_ID": 66909, "ELEMENT_SET_NO": 999, "REV_AT_EPOCH": 53, "BSTAR": 0.0014470913, "MEAN_MOTION_DOT": 0.00084238, "MEAN_MOTION_DDOT": 0}, "tle": {"line1": "1 66909U 98067XV  25339.76717490  .00084238  00000+0  14471-2 0  9996", "line2": "2 66909  51.6292 176.9805 0005364 189.9534 170.1350 15.50399103   531"}}, "geometry": {"type": "Point", "coordinates": [111.33444832684268, -48.230274245557666]}}, {"type": "Feature", "properties": {"norad_id": 66910, "name": "1998-067XW", "group": "last-30-days", "lat": -46.6415018556603, "lon": 116.79628749716456, "alt_km": 420.70723750470734, "timestamp": "2025-12-06T09:34:15.700945+00:00", "meta": {"OBJECT_NAME": "1998-067XW", "OBJECT_ID": "1998-067XW", "EPOCH": "2025-12-05T23:02:14.972928", "MEAN_MOTION": 15.50685227, "ECCENTRICITY": 0.00063204, "INCLINATION": 51.6293, "RA_OF_ASC_NODE": 176.0172, "ARG_OF_PERICENTER": 176.8088, "MEAN_ANOMALY": 183.2943, "EPHEMERIS_TYPE": 0, "CLASSIFICATION_TYPE": "U", "NORAD_CAT_ID": 66910, "ELEMENT_SET_NO": 999, "REV_AT_EPOCH": 56, "BSTAR": 0.0012355568, "MEAN_MOTION_DOT": 0.000725, "MEAN_MOTION_DDOT": 0}, "tle": {"line1": "1 66910U 98067XW  25339.95989552  .00072500  00000+0  12356-2 0  9998", "line2": "2 66910  51.6293 176.0172 0006320 176.8088 183.2943 15.50685227   565"}}, "geometry": {"type": "Point", "coordinates": [116.79628749716456, -46.6415018556603]}}, {"type": "Feature", "properties": {"norad_id": 66911, "name": "1998-067XX", "group": "last-30-days", "lat": -46.46401419779122, "lon": 117.33739147968059, "alt_km": 420.4920806346854, "timestamp": "2025-12-06T09:34:15.700955+00:00", "meta": {"OBJECT_NAME": "1998-067XX", "OBJECT_ID": "1998-067XX", "EPOCH": "2025-12-05T21:29:22.335360", "MEAN_MOTION": 15.50737311, "ECCENTRICITY": 0.00062325, "INCLINATION": 51.6291, "RA_OF_ASC_NODE": 176.3366, "ARG_OF_PERICENTER": 176.693, "MEAN_ANOMALY": 183.4102, "EPHEMERIS_TYPE": 0, "CLASSIFICATION_TYPE": "U", "NORAD_CAT_ID": 66911, "ELEMENT_SET_NO": 999, "REV_AT_EPOCH": 54, "BSTAR": 0.0013660051, "MEAN_MOTION_DOT": 0.00080432, "MEAN_MOTION_DDOT": 0}, "tle": {"line1": "1 66911U 98067XX  25339.89539740  .00080432  00000+0  13660-2 0  9994", "line2": "2 66911  51.6291 176.3366 0006232 176.6930 183.4102 15.50737311   547"}}, "geometry": {"type": "Point", "coordinates": [117.33739147968059, -46.46401419779122]}}, {"type": "Feature", "properties": {"norad_id": 66912, "name": "1998-067XY", "group": "last-30-days", "lat": -48.75531460686865, "lon": 109.20884198245037, "alt_km": 420.63934718298606, "timestamp": "2025-12-06T09:34:15.700965+00:00", "meta": {"OBJECT_NAME": "1998-067XY", "OBJECT_ID": "1998-067XY", "EPOCH": "2025-12-05T19:57:50.505120", "MEAN_MOTION": 15.50237673, "ECCENTRICITY": 0.00053781, "INCLINATION": 51.6293, "RA_OF_ASC_NODE": 176.6617, "ARG_OF_PERICENTER": 189.6271, "MEAN_ANOMALY": 170.4616, "EPHEMERIS_TYPE": 0, "CLASSIFICATION_TYPE": "U", "NORAD_CAT_ID": 66912, "ELEMENT_SET_NO": 999, "REV_AT_EPOCH": 53, "BSTAR": 0.0011244391, "MEAN_MOTION_DOT": 0.00064818, "MEAN_MOTION_DDOT": 0}, "tle": {"line1": "1 66912U 98067XY  25339.83183455  .00064818  00000+0  11244-2 0  9993", "line2": "2 66912  51.6293 176.6617 0005378 189.6271 170.4616 15.50237673   535"}}, "geometry": {"type": "Point", "coordinates": [109.20884198245037, -48.75531460686865]}}]}